IRIDIUM 57              
1 25273U 98019B   25023.91152008  .00000833  00000+0  28202-3 0  9994
2 25273  86.3966 205.6449 0001991  92.3737 267.7687 14.35698163404085
IRIDIUM 63              
1 25286U 98021B   25023.84434123  .00001208  00000+0  40646-3 0  9997
2 25286  86.4028 142.6697 0002056  89.8221 270.3211 14.36340877403120
IRIDIUM 69              
1 25319U 98026A   25023.88085523  .00001686  00000+0  52201-3 0  9999
2 25319  86.4027 156.3620 0003952 119.1536 241.0059 14.40701301402285
IRIDIUM 71              
1 25320U 98026B   25023.83857613  .00001328  00000+0  40788-3 0  9993
2 25320  86.4026 151.1031 0002394 151.2825 208.8507 14.40926697402806
IRIDIUM 73              
1 25344U 98032C   25023.71126375  .00001564  00000+0  38754-3 0  9999
2 25344  86.4419 108.1943 0002745 101.7817 258.3696 14.51374896409607
IRIDIUM 82              
1 25467U 98051A   25023.87276166  .00040868  00000+0  14949-2 0  9996
2 25467  86.3738 180.1372 0102611 121.0372 240.0998 15.22968710401929
